[{"id":"39766","name":"ALOS-2","tle1":"1 39766U 14029A   26175.84931163  .00001425  00000+0  19768-3 0  9998","tle2":"2 39766  97.9218 272.9036 0001631  90.6853 269.4546 14.79476915652710"},{"id":"40010","name":"KAZEOSAT 2","tle1":"1 40010U 14033A   26176.24589447  .00000833  00000+0  10237-3 0  9990","tle2":"2 40010  97.5409  15.4319 0007221 299.3406  60.7088 14.85478282650154"},{"id":"40011","name":"HODOYOSHI-4","tle1":"1 40011U 14033B   26176.30455995  .00000275  00000+0  35465-4 0  9999","tle2":"2 40011  97.5459   0.7353 0022102 280.0463  79.8261 14.88140592650012"},{"id":"40013","name":"DEIMOS-2","tle1":"1 40013U 14033D   26176.28868551  .00001031  00000+0  10251-3 0  9990","tle2":"2 40013  97.5830  50.4927 0001378  55.9080 304.2271 14.93746743638931"},{"id":"40015","name":"HODOYOSHI-3","tle1":"1 40015U 14033F   26176.20125819  .00001011  00000+0  12248-3 0  9993","tle2":"2 40015  97.6424 338.9194 0032011 330.4879  29.4528 14.85403545648818"},{"id":"40053","name":"SPOT 7","tle1":"1 40053U 14034A   26176.33175635  .00000108  00000+0  31304-4 0  9992","tle2":"2 40053  98.0628 238.6138 0001337  95.3703 264.7651 14.60963548638328"},{"id":"40072","name":"SKYSAT-B","tle1":"1 40072U 14037D   26175.45466712  .00001081  00000+0  12438-3 0  9994","tle2":"2 40072  98.3840 134.8339 0004215 250.1717 109.9044 14.88043414647048"},{"id":"40115","name":"WORLDVIEW-3 (WV-3)","tle1":"1 40115U 14048A   26176.32035373  .00000808  00000+0  10097-3 0  9991","tle2":"2 40115  97.8564 251.0409 0000327  18.5282 341.5944 14.85034007643118"},{"id":"40118","name":"GAOFEN-2","tle1":"1 40118U 14049A   26176.28445100  .00000798  00000+0  11014-3 0  9991","tle2":"2 40118  98.0107 240.4839 0006677 196.6376 163.4618 14.80907150640436"},{"id":"40143","name":"YAOGAN-21","tle1":"1 40143U 14053A   26176.29142270  .00009851  00000+0  37958-3 0  9991","tle2":"2 40143  97.1478 216.1794 0009812  70.6196 289.6103 15.26483404656192"},{"id":"40275","name":"YAOGAN-22","tle1":"1 40275U 14063A   26176.17104922 -.00000046  00000+0  23477-5 0  9998","tle2":"2 40275 100.7733 327.5771 0006523 167.6038 192.5235 13.15531130560865"},{"id":"40298","name":"ASNARO","tle1":"1 40298U 14070A   26176.25932869  .00007282  00000+0  34549-3 0  9997","tle2":"2 40298  97.3454 252.1553 0006405 140.9031 219.2668 15.19539792645238"},{"id":"40310","name":"YAOGAN-24","tle1":"1 40310U 14072A   26176.21583663  .00000684  00000+0  10643-3 0  9992","tle2":"2 40310  98.1495 313.6224 0012696 235.0379 124.9639 14.76231515624900"},{"id":"40336","name":"CBERS 4","tle1":"1 40336U 14079A   26176.33173822 -.00000002  00000+0  13822-4 0  9990","tle2":"2 40336  98.3531 232.9079 0001603  56.0505 304.0834 14.35510651605127"},{"id":"40362","name":"YAOGAN-26","tle1":"1 40362U 14088A   26176.28114869  .00030235  00000+0  58550-3 0  9995","tle2":"2 40362  97.0643 176.3018 0005077  48.0108 312.1575 15.47657088638958"},{"id":"40376","name":"SMAP","tle1":"1 40376U 15003A   26176.28503768  .00000400  00000+0  86568-4 0  9990","tle2":"2 40376  98.1276 183.2648 0001407  98.4368 261.6994 14.63372995608805"},{"id":"40536","name":"KOMPSAT-3A","tle1":"1 40536U 15014A   26176.29008765  .00031658  00000+0  45026-3 0  9990","tle2":"2 40536  97.6884 168.2460 0057173 145.5451 214.9530 15.54358844623076"},{"id":"40697","name":"SENTINEL-2A","tle1":"1 40697U 15028A   26176.32658608 -.00000047  00000+0 -13300-5 0  9996","tle2":"2 40697  98.5682 251.0629 0001139  92.1786 267.9527 14.30816964574891"},{"id":"40701","name":"GAOFEN-8","tle1":"1 40701U 15030A   26176.30743933  .00016017  00000+0  32713-3 0  9998","tle2":"2 40701  97.6908  10.1658 0009366 158.2688 201.8959 15.46216221612706"},{"id":"40718","name":"CARBONITE 1 (CBNT-1)","tle1":"1 40718U 15032D   26176.27593453  .00001197  00000+0  15120-3 0  9990","tle2":"2 40718  97.6515 354.0037 0012874 268.5548  91.4192 14.83607758590545"},{"id":"40878","name":"YAOGAN-27","tle1":"1 40878U 15040A   26176.31482986  .00000627  00000+0  17618-2 0  9999","tle2":"2 40878 100.1155 162.3448 0007896 190.6267 169.4681 13.16072712518730"},{"id":"40894","name":"GAOFEN-9 01","tle1":"1 40894U 15047A   26176.29483421  .00000976  00000+0  12580-3 0  9997","tle2":"2 40894  97.6272 211.6212 0028791 112.4125 248.0143 14.82898187581392"},{"id":"41026","name":"YAOGAN-28","tle1":"1 41026U 15064A   26176.31500806  .00007973  00000+0  29832-3 0  9996","tle2":"2 41026  97.3077 314.4116 0011333 155.6163 204.5615 15.27515619591927"},{"id":"41038","name":"YAOGAN-29","tle1":"1 41038U 15069A   26176.27396648 -.00000249  00000+0 -23960-4 0  9994","tle2":"2 41038  98.0031 204.9197 0002215  41.6943 318.4439 14.83089125571824"},{"id":"41167","name":"KENT RIDGE 1","tle1":"1 41167U 15077B   26176.21807334  .00003913  00000+0  12923-3 0  9994","tle2":"2 41167  14.9783 206.2613 0008197 351.8228   8.1960 15.23174522582323"},{"id":"41194","name":"GAOFEN-4","tle1":"1 41194U 15083A   26175.54787260 -.00000327  00000+0  00000+0 0  9997","tle2":"2 41194   0.3772  83.8708 0004100 115.1285  16.6415  1.00271781 38609"},{"id":"41240","name":"JASON-3","tle1":"1 41240U 16002A   26176.31337858 -.00000062  00000+0  10467-5 0  9991","tle2":"2 41240  66.0414 108.7513 0008420 272.3798  87.6256 12.87556177488295"},{"id":"41335","name":"SENTINEL-3A","tle1":"1 41335U 16011A   26176.28150161  .00000091  00000+0  55776-4 0  9994","tle2":"2 41335  98.6246 243.5489 0001431  97.4312 262.7031 14.26734732539213"},{"id":"41556","name":"ZIYUAN 3-02 (ZY 3-02)","tle1":"1 41556U 16033A   26176.28034924  .00006007  00000+0  27146-3 0  9993","tle2":"2 41556  97.3837 251.8991 0012423 259.5888 100.3948 15.21248950559216"},{"id":"41599","name":"CARTOSAT-2C","tle1":"1 41599U 16040A   26176.29369559  .00003867  00000+0  18649-3 0  9993","tle2":"2 41599  97.4486 236.1600 0010455 106.7662 253.4721 15.19247935554946"}]