OBJECT_NAME,OBJECT_ID,EPOCH,MEAN_MOTION,ECCENTRICITY,INCLINATION,RA_OF_ASC_NODE,ARG_OF_PERICENTER,MEAN_ANOMALY,EPHEMERIS_TYPE,CLASSIFICATION_TYPE,NORAD_CAT_ID,ELEMENT_SET_NO,REV_AT_EPOCH,BSTAR,MEAN_MOTION_DOT,MEAN_MOTION_DDOT
ALOS-2,2014-029A,2026-06-24T20:23:00.524832,14.79476915,.00016311,97.9218,272.9036,90.6853,269.4546,0,U,39766,999,65271,.19768226E-3,.1425E-4,0
KAZEOSAT 2,2014-033A,2026-06-25T05:54:05.282208,14.85478282,.00072214,97.5409,15.4319,299.3406,60.7088,0,U,40010,999,65015,.10236526E-3,.833E-5,0
HODOYOSHI-4,2014-033B,2026-06-25T07:18:33.979680,14.88140592,.00221027,97.5459,0.7353,280.0463,79.8261,0,U,40011,999,65001,.35465262E-4,.275E-5,0
DEIMOS-2,2014-033D,2026-06-25T06:55:42.428064,14.93746743,.00013781,97.5830,50.4927,55.9080,304.2271,0,U,40013,999,63893,.10250656E-3,.1031E-4,0
HODOYOSHI-3,2014-033F,2026-06-25T04:49:48.707616,14.85403545,.00320111,97.6424,338.9194,330.4879,29.4528,0,U,40015,999,64881,.12247846E-3,.1011E-4,0
SPOT 7,2014-034A,2026-06-25T07:57:43.748640,14.60963548,.00013378,98.0628,238.6138,95.3703,264.7651,0,U,40053,999,63832,.31304221E-4,.108E-5,0
SKYSAT-B,2014-037D,2026-06-24T10:54:43.239168,14.88043414,.00042151,98.3840,134.8339,250.1717,109.9044,0,U,40072,999,64704,.12438367E-3,.1081E-4,0
WORLDVIEW-3 (WV-3),2014-048A,2026-06-25T07:41:18.562272,14.85034007,.00003279,97.8564,251.0409,18.5282,341.5944,0,U,40115,999,64311,.10096967E-3,.808E-5,0
GAOFEN-2,2014-049A,2026-06-25T06:49:36.566400,14.80907150,.0006677,98.0107,240.4839,196.6376,163.4618,0,U,40118,999,64043,.11014142E-3,.798E-5,0
YAOGAN-21,2014-053A,2026-06-25T06:59:38.921280,15.26483404,.00098123,97.1478,216.1794,70.6196,289.6103,0,U,40143,999,65619,.37958305E-3,.9851E-4,0
YAOGAN-22,2014-063A,2026-06-25T04:06:18.652608,13.15531130,.00065231,100.7733,327.5771,167.6038,192.5235,0,U,40275,999,56086,.2347685E-5,-.46E-6,0
ASNARO,2014-070A,2026-06-25T06:13:25.998816,15.19539792,.00064054,97.3454,252.1553,140.9031,219.2668,0,U,40298,999,64523,.34548702E-3,.7282E-4,0
YAOGAN-24,2014-072A,2026-06-25T05:10:48.284832,14.76231515,.00126968,98.1495,313.6224,235.0379,124.9639,0,U,40310,999,62490,.1064284E-3,.684E-5,0
CBERS 4,2014-079A,2026-06-25T07:57:42.182208,14.35510651,.00016033,98.3531,232.9079,56.0505,304.0834,0,U,40336,999,60512,.13822019E-4,-.2E-7,0
YAOGAN-26,2014-088A,2026-06-25T06:44:51.246816,15.47657088,.00050778,97.0643,176.3018,48.0108,312.1575,0,U,40362,999,63895,.58550361E-3,.30235E-3,0
SMAP,2015-003A,2026-06-25T06:50:27.255552,14.63372995,.00014075,98.1276,183.2648,98.4368,261.6994,0,U,40376,999,60880,.86568011E-4,.4E-5,0
KOMPSAT-3A,2015-014A,2026-06-25T06:57:43.572960,15.54358844,.00571733,97.6884,168.2460,145.5451,214.9530,0,U,40536,999,62307,.45026179E-3,.31658E-3,0
SENTINEL-2A,2015-028A,2026-06-25T07:50:17.037312,14.30816964,.00011396,98.5682,251.0629,92.1786,267.9527,0,U,40697,999,57489,-.1329982E-5,-.47E-6,0
GAOFEN-8,2015-030A,2026-06-25T07:22:42.758112,15.46216221,.00093661,97.6908,10.1658,158.2688,201.8959,0,U,40701,999,61270,.3271284E-3,.16017E-3,0
CARBONITE 1 (CBNT-1),2015-032D,2026-06-25T06:37:20.743392,14.83607758,.00128745,97.6515,354.0037,268.5548,91.4192,0,U,40718,999,59054,.15120379E-3,.1197E-4,0
YAOGAN-27,2015-040A,2026-06-25T07:33:21.299904,13.16072712,.00078965,100.1155,162.3448,190.6267,169.4681,0,U,40878,999,51873,.17618386E-2,.627E-5,0
GAOFEN-9 01,2015-047A,2026-06-25T07:04:33.675744,14.82898187,.00287914,97.6272,211.6212,112.4125,248.0143,0,U,40894,999,58139,.12579701E-3,.976E-5,0
YAOGAN-28,2015-064A,2026-06-25T07:33:36.696384,15.27515619,.00113335,97.3077,314.4116,155.6163,204.5615,0,U,41026,999,59192,.2983194E-3,.7973E-4,0
YAOGAN-29,2015-069A,2026-06-25T06:34:30.703872,14.83089125,.00022151,98.0031,204.9197,41.6943,318.4439,0,U,41038,999,57182,-.23960173E-4,-.249E-5,0
KENT RIDGE 1,2015-077B,2026-06-25T05:14:01.536576,15.23174522,.00081979,14.9783,206.2613,351.8228,8.1960,0,U,41167,999,58232,.1292262E-3,.3913E-4,0
GAOFEN-4,2015-083A,2026-06-24T13:08:56.192640,1.00271781,.00041005,0.3772,83.8708,115.1285,16.6415,0,U,41194,999,3860,0,-.327E-5,0
JASON-3,2016-002A,2026-06-25T07:31:15.909312,12.87556177,.00084203,66.0414,108.7513,272.3798,87.6256,0,U,41240,999,48829,.1046654E-5,-.62E-6,0
SENTINEL-3A,2016-011A,2026-06-25T06:45:21.739104,14.26734732,.00014317,98.6246,243.5489,97.4312,262.7031,0,U,41335,999,53921,.55775918E-4,.91E-6,0
ZIYUAN 3-02 (ZY 3-02),2016-033A,2026-06-25T06:43:42.174336,15.21248950,.00124235,97.3837,251.8991,259.5888,100.3948,0,U,41556,999,55921,.27146445E-3,.6007E-4,0
CARTOSAT-2C,2016-040A,2026-06-25T07:02:55.298976,15.19247935,.00104559,97.4486,236.1600,106.7662,253.4721,0,U,41599,999,55494,.18648713E-3,.3867E-4,0
